[{"CCSDS_OMM_VERS":"2.0","COMMENT":"GENERATED VIA SPACE-TRACK.ORG API","CREATION_DATE":"2021-04-19T22:36:12","ORIGINATOR":"18 SPCS","OBJECT_NAME":"STARLINK-1024","OBJECT_ID":"2019-074S","CENTER_NAME":"EARTH","REF_FRAME":"TEME","TIME_SYSTEM":"UTC","MEAN_ELEMENT_THEORY":"SGP4","EPOCH":"2021-04-19T18:14:25.057536","MEAN_MOTION":"15.06742525","ECCENTRICITY":"0.00030040","INCLINATION":"53.0008","RA_OF_ASC_NODE":"298.6743","ARG_OF_PERICENTER":"82.8742","MEAN_ANOMALY":"277.2588","EPHEMERIS_TYPE":"0","CLASSIFICATION_TYPE":"U","NORAD_CAT_ID":"44729","ELEMENT_SET_NO":"999","REV_AT_EPOCH":"7961","BSTAR":"0.00021300000000","MEAN_MOTION_DOT":"0.00002921","MEAN_MOTION_DDOT":"0.0000000000000","SEMIMAJOR_AXIS":"6924.299","PERIOD":"95.570","APOAPSIS":"548.244","PERIAPSIS":"544.084","OBJECT_TYPE":"PAYLOAD","RCS_SIZE":"LARGE","COUNTRY_CODE":"US","LAUNCH_DATE":"2019-11-11","SITE":"AFETR","DECAY_DATE":null,"FILE":"3021243","GP_ID":"175769882","TLE_LINE0":"0 STARLINK-1024","TLE_LINE1":"1 44729U 19074S   21109.76001224  .00002921  00000-0  21300-3 0  9995","TLE_LINE2":"2 44729  53.0008 298.6743 0003004  82.8742 277.2588 15.06742525 79610"},{"CCSDS_OMM_VERS":"2.0","COMMENT":"GENERATED VIA SPACE-TRACK.ORG API","CREATION_DATE":"2021-04-20T03:39:30","ORIGINATOR":"18 SPCS","OBJECT_NAME":"STARLINK-1024","OBJECT_ID":"2019-074S","CENTER_NAME":"EARTH","REF_FRAME":"TEME","TIME_SYSTEM":"UTC","MEAN_ELEMENT_THEORY":"SGP4","EPOCH":"2021-04-19T21:25:27.106176","MEAN_MOTION":"15.06743843","ECCENTRICITY":"0.00030100","INCLINATION":"53.0008","RA_OF_ASC_NODE":"298.0777","ARG_OF_PERICENTER":"83.0581","MEAN_ANOMALY":"277.0750","EPHEMERIS_TYPE":"0","CLASSIFICATION_TYPE":"U","NORAD_CAT_ID":"44729","ELEMENT_SET_NO":"999","REV_AT_EPOCH":"7946","BSTAR":"0.00021960000000","MEAN_MOTION_DOT":"0.00003020","MEAN_MOTION_DDOT":"0.0000000000000","SEMIMAJOR_AXIS":"6924.295","PERIOD":"95.570","APOAPSIS":"548.244","PERIAPSIS":"544.076","OBJECT_TYPE":"PAYLOAD","RCS_SIZE":"LARGE","COUNTRY_CODE":"US","LAUNCH_DATE":"2019-11-11","SITE":"AFETR","DECAY_DATE":null,"FILE":"3021350","GP_ID":"175791027","TLE_LINE0":"0 STARLINK-1024","TLE_LINE1":"1 44729U 19074S   21109.89267484  .00003020  00000-0  21960-3 0  9994","TLE_LINE2":"2 44729  53.0008 298.0777 0003010  83.0581 277.0750 15.06743843 79468"},{"CCSDS_OMM_VERS":"2.0","COMMENT":"GENERATED VIA SPACE-TRACK.ORG API","CREATION_DATE":"2021-04-20T17:58:56","ORIGINATOR":"18 SPCS","OBJECT_NAME":"STARLINK-1024","OBJECT_ID":"2019-074S","CENTER_NAME":"EARTH","REF_FRAME":"TEME","TIME_SYSTEM":"UTC","MEAN_ELEMENT_THEORY":"SGP4","EPOCH":"2021-04-20T13:20:37.292352","MEAN_MOTION":"15.06747586","ECCENTRICITY":"0.00030070","INCLINATION":"53.0006","RA_OF_ASC_NODE":"295.0946","ARG_OF_PERICENTER":"85.2498","MEAN_ANOMALY":"274.8834","EPHEMERIS_TYPE":"0","CLASSIFICATION_TYPE":"U","NORAD_CAT_ID":"44729","ELEMENT_SET_NO":"999","REV_AT_EPOCH":"7956","BSTAR":"0.00019335000000","MEAN_MOTION_DOT":"0.00002625","MEAN_MOTION_DDOT":"0.0000000000000","SEMIMAJOR_AXIS":"6924.283","PERIOD":"95.570","APOAPSIS":"548.231","PERIAPSIS":"544.066","OBJECT_TYPE":"PAYLOAD","RCS_SIZE":"LARGE","COUNTRY_CODE":"US","LAUNCH_DATE":"2019-11-11","SITE":"AFETR","DECAY_DATE":null,"FILE":"3021801","GP_ID":"175825349","TLE_LINE0":"0 STARLINK-1024","TLE_LINE1":"1 44729U 19074S   21110.55598718  .00002625  00000-0  19335-3 0  9999","TLE_LINE2":"2 44729  53.0006 295.0946 0003007  85.2498 274.8834 15.06747586 79565"},{"CCSDS_OMM_VERS":"2.0","COMMENT":"GENERATED VIA SPACE-TRACK.ORG API","CREATION_DATE":"2021-04-20T22:46:12","ORIGINATOR":"18 SPCS","OBJECT_NAME":"STARLINK-1024","OBJECT_ID":"2019-074S","CENTER_NAME":"EARTH","REF_FRAME":"TEME","TIME_SYSTEM":"UTC","MEAN_ELEMENT_THEORY":"SGP4","EPOCH":"2021-04-20T19:42:41.303232","MEAN_MOTION":"15.06749893","ECCENTRICITY":"0.00030140","INCLINATION":"53.0006","RA_OF_ASC_NODE":"293.9015","ARG_OF_PERICENTER":"85.5594","MEAN_ANOMALY":"274.5738","EPHEMERIS_TYPE":"0","CLASSIFICATION_TYPE":"U","NORAD_CAT_ID":"44729","ELEMENT_SET_NO":"999","REV_AT_EPOCH":"7977","BSTAR":"0.00020848000000","MEAN_MOTION_DOT":"0.00002853","MEAN_MOTION_DDOT":"0.0000000000000","SEMIMAJOR_AXIS":"6924.276","PERIOD":"95.570","APOAPSIS":"548.228","PERIAPSIS":"544.054","OBJECT_TYPE":"PAYLOAD","RCS_SIZE":"LARGE","COUNTRY_CODE":"US","LAUNCH_DATE":"2019-11-11","SITE":"AFETR","DECAY_DATE":null,"FILE":"3021909","GP_ID":"175829987","TLE_LINE0":"0 STARLINK-1024","TLE_LINE1":"1 44729U 19074S   21110.82131138  .00002853  00000-0  20848-3 0  9992","TLE_LINE2":"2 44729  53.0006 293.9015 0003014  85.5594 274.5738 15.06749893 79773"},{"CCSDS_OMM_VERS":"2.0","COMMENT":"GENERATED VIA SPACE-TRACK.ORG API","CREATION_DATE":"2021-04-21T19:20:26","ORIGINATOR":"18 SPCS","OBJECT_NAME":"STARLINK-1024","OBJECT_ID":"2019-074S","CENTER_NAME":"EARTH","REF_FRAME":"TEME","TIME_SYSTEM":"UTC","MEAN_ELEMENT_THEORY":"SGP4","EPOCH":"2021-04-21T11:37:51.260448","MEAN_MOTION":"15.06753805","ECCENTRICITY":"0.00030020","INCLINATION":"53.0004","RA_OF_ASC_NODE":"290.9184","ARG_OF_PERICENTER":"87.4890","MEAN_ANOMALY":"272.6443","EPHEMERIS_TYPE":"0","CLASSIFICATION_TYPE":"U","NORAD_CAT_ID":"44729","ELEMENT_SET_NO":"999","REV_AT_EPOCH":"7970","BSTAR":"0.00020453000000","MEAN_MOTION_DOT":"0.00002794","MEAN_MOTION_DDOT":"0.0000000000000","SEMIMAJOR_AXIS":"6924.264","PERIOD":"95.570","APOAPSIS":"548.208","PERIAPSIS":"544.051","OBJECT_TYPE":"PAYLOAD","RCS_SIZE":"LARGE","COUNTRY_CODE":"US","LAUNCH_DATE":"2019-11-11","SITE":"AFETR","DECAY_DATE":null,"FILE":"3022491","GP_ID":"175885630","TLE_LINE0":"0 STARLINK-1024","TLE_LINE1":"1 44729U 19074S   21111.48462107  .00002794  00000-0  20453-3 0  9994","TLE_LINE2":"2 44729  53.0004 290.9184 0003002  87.4890 272.6443 15.06753805 79705"},{"CCSDS_OMM_VERS":"2.0","COMMENT":"GENERATED VIA SPACE-TRACK.ORG API","CREATION_DATE":"2021-04-22T04:57:12","ORIGINATOR":"18 SPCS","OBJECT_NAME":"STARLINK-1024","OBJECT_ID":"2019-074S","CENTER_NAME":"EARTH","REF_FRAME":"TEME","TIME_SYSTEM":"UTC","MEAN_ELEMENT_THEORY":"SGP4","EPOCH":"2021-04-21T17:59:55.203072","MEAN_MOTION":"15.06755280","ECCENTRICITY":"0.00029930","INCLINATION":"53.0006","RA_OF_ASC_NODE":"289.7251","ARG_OF_PERICENTER":"88.0910","MEAN_ANOMALY":"272.0421","EPHEMERIS_TYPE":"0","CLASSIFICATION_TYPE":"U","NORAD_CAT_ID":"44729","ELEMENT_SET_NO":"999","REV_AT_EPOCH":"7974","BSTAR":"0.00019917000000","MEAN_MOTION_DOT":"0.00002714","MEAN_MOTION_DDOT":"0.0000000000000","SEMIMAJOR_AXIS":"6924.260","PERIOD":"95.570","APOAPSIS":"548.197","PERIAPSIS":"544.052","OBJECT_TYPE":"PAYLOAD","RCS_SIZE":"LARGE","COUNTRY_CODE":"US","LAUNCH_DATE":"2019-11-11","SITE":"AFETR","DECAY_DATE":null,"FILE":"3022711","GP_ID":"175912040","TLE_LINE0":"0 STARLINK-1024","TLE_LINE1":"1 44729U 19074S   21111.74994448  .00002714  00000-0  19917-3 0  9996","TLE_LINE2":"2 44729  53.0006 289.7251 0002993  88.0910 272.0421 15.06755280 79749"},{"CCSDS_OMM_VERS":"2.0","COMMENT":"GENERATED VIA SPACE-TRACK.ORG API","CREATION_DATE":"2021-04-22T06:46:13","ORIGINATOR":"18 SPCS","OBJECT_NAME":"STARLINK-1024","OBJECT_ID":"2019-074S","CENTER_NAME":"EARTH","REF_FRAME":"TEME","TIME_SYSTEM":"UTC","MEAN_ELEMENT_THEORY":"SGP4","EPOCH":"2021-04-21T22:46:28.105824","MEAN_MOTION":"15.06757699","ECCENTRICITY":"0.00029970","INCLINATION":"53.0006","RA_OF_ASC_NODE":"288.8301","ARG_OF_PERICENTER":"88.3442","MEAN_ANOMALY":"271.7890","EPHEMERIS_TYPE":"0","CLASSIFICATION_TYPE":"U","NORAD_CAT_ID":"44729","ELEMENT_SET_NO":"999","REV_AT_EPOCH":"7994","BSTAR":"0.00022245000000","MEAN_MOTION_DOT":"0.00003064","MEAN_MOTION_DDOT":"0.0000000000000","SEMIMAJOR_AXIS":"6924.252","PERIOD":"95.569","APOAPSIS":"548.193","PERIAPSIS":"544.042","OBJECT_TYPE":"PAYLOAD","RCS_SIZE":"LARGE","COUNTRY_CODE":"US","LAUNCH_DATE":"2019-11-11","SITE":"AFETR","DECAY_DATE":null,"FILE":"3022799","GP_ID":"175917137","TLE_LINE0":"0 STARLINK-1024","TLE_LINE1":"1 44729U 19074S   21111.94893641  .00003064  00000-0  22245-3 0  9998","TLE_LINE2":"2 44729  53.0006 288.8301 0002997  88.3442 271.7890 15.06757699 79946"},{"CCSDS_OMM_VERS":"2.0","COMMENT":"GENERATED VIA SPACE-TRACK.ORG API","CREATION_DATE":"2021-04-22T19:36:56","ORIGINATOR":"18 SPCS","OBJECT_NAME":"STARLINK-1024","OBJECT_ID":"2019-074S","CENTER_NAME":"EARTH","REF_FRAME":"TEME","TIME_SYSTEM":"UTC","MEAN_ELEMENT_THEORY":"SGP4","EPOCH":"2021-04-22T11:30:35.892576","MEAN_MOTION":"15.06759682","ECCENTRICITY":"0.00029900","INCLINATION":"53.0004","RA_OF_ASC_NODE":"286.4435","ARG_OF_PERICENTER":"89.5734","MEAN_ANOMALY":"270.5597","EPHEMERIS_TYPE":"0","CLASSIFICATION_TYPE":"U","NORAD_CAT_ID":"44729","ELEMENT_SET_NO":"999","REV_AT_EPOCH":"7985","BSTAR":"0.00019380000000","MEAN_MOTION_DOT":"0.00002633","MEAN_MOTION_DDOT":"0.0000000000000","SEMIMAJOR_AXIS":"6924.246","PERIOD":"95.569","APOAPSIS":"548.182","PERIAPSIS":"544.041","OBJECT_TYPE":"PAYLOAD","RCS_SIZE":"LARGE","COUNTRY_CODE":"US","LAUNCH_DATE":"2019-11-11","SITE":"AFETR","DECAY_DATE":null,"FILE":"3023174","GP_ID":"175945007","TLE_LINE0":"0 STARLINK-1024","TLE_LINE1":"1 44729U 19074S   21112.47958209  .00002633  00000-0  19380-3 0  9996","TLE_LINE2":"2 44729  53.0004 286.4435 0002990  89.5734 270.5597 15.06759682 79851"}]